NORAD_CAT_ID,OBJECT_NAME,OBJECT_TYPE,EPOCH,MEAN_MOTION,ECCENTRICITY,INCLINATION,RA_OF_ASC_NODE,ARG_OF_PERICENTER,MEAN_ANOMALY,BSTAR,MEAN_MOTION_DOT,MEAN_MOTION_DDOT,TLE_LINE0,TLE_LINE1,TLE_LINE2,SEMIMAJOR_AXIS,PERIOD,APOGEE,PERIGEE,DECAYED
56465.0,STARLINK-6054,PAYLOAD,2024-05-26 13:33:26,14.98329556,0.0002885,69.9991,308.5358,272.0657,88.0172,0.00013482,1.516e-05,0.0,0 STARLINK-6054,1 56465U 23064T   24147.56489351  .00001516  00000-0  13482-3 0  9994,2 56465  69.9991 308.5358 0002885 272.0657  88.0172 14.98329556 58916,6950.194,96.107,574.064,570.054,0.0
56465.0,STARLINK-6054,PAYLOAD,2024-05-26 15:09:34,14.98330062,0.0002878,69.9991,308.3675,272.1574,87.9255,0.00014045,1.583e-05,0.0,0 STARLINK-6054,1 56465U 23064T   24147.63165321  .00001583  00000-0  14045-3 0  9990,2 56465  69.9991 308.3675 0002878 272.1574  87.9255 14.98330062 58562,6950.193,96.107,574.058,570.057,0.0
56465.0,STARLINK-6054,PAYLOAD,2024-05-26 19:57:59,14.98323514,0.0003134,69.9993,307.8629,273.4625,86.6176,0.00033042,3.851e-05,0.0,0 STARLINK-6054,1 56465U 23064T   24147.83193418  .00003851  00000-0  33042-3 0  9998,2 56465  69.9993 307.8629 0003134 273.4625  86.6176 14.98323514 58599,6950.213,96.107,574.256,569.9,0.0
56465.0,STARLINK-6054,PAYLOAD,2024-05-27 13:35:28,14.98326744,0.0002488,70.0005,306.0121,255.2467,104.8417,7.6355e-05,8.18e-06,0.0,0 STARLINK-6054,1 56465U 23064T   24148.56629666  .00000818  00000-0  76355-4 0  9993,2 56465  70.0005 306.0121 0002488 255.2467 104.8417 14.98326744 59069,6950.203,96.107,573.797,570.339,0.0
56465.0,STARLINK-6054,PAYLOAD,2024-05-27 20:00:00,14.9832413,0.0002699,69.9998,305.3372,265.0035,95.0816,1.5904e-05,9.7e-07,0.0,0 STARLINK-6054,1 56465U 23064T   24148.83334070  .00000097  00000-0  15904-4 0  9997,2 56465  69.9998 305.3372 0002699 265.0035  95.0816 14.98324130 58746,6950.211,96.107,573.952,570.2,0.0
56465.0,STARLINK-6054,PAYLOAD,2024-05-28 13:37:28,14.98333834,0.0003179,69.9996,303.4861,272.3904,87.6891,7.7342e-05,8.3e-06,0.0,0 STARLINK-6054,1 56465U 23064T   24149.56769192  .00000830  00000-0  77342-4 0  9994,2 56465  69.9996 303.4861 0003179 272.3904  87.6891 14.98333834 58859,6950.181,96.107,574.255,569.837,0.0
56465.0,STARLINK-6054,PAYLOAD,2024-05-28 20:02:00,14.9833857,0.000297,69.9996,302.8129,266.9624,93.1195,8.9095e-05,9.7e-06,0.0,0 STARLINK-6054,1 56465U 23064T   24149.83472782  .00000970  00000-0  89095-4 0  9993,2 56465  69.9996 302.8129 0002970 266.9624  93.1195 14.98338570 59251,6950.166,96.106,574.096,569.967,0.0
56465.0,STARLINK-6054,PAYLOAD,2024-05-29 12:03:21,14.98324217,0.0003037,69.9998,301.129,269.594,90.4871,0.00016954,1.93e-05,0.0,0 STARLINK-6054,1 56465U 23064T   24150.50233449  .00001930  00000-0  16954-3 0  9994,2 56465  69.9998 301.1290 0003037 269.5940  90.4871 14.98324217 59354,6950.211,96.107,574.187,569.965,0.0
56465.0,STARLINK-6054,PAYLOAD,2024-05-29 13:39:29,14.98331173,0.000305,69.9998,300.9606,268.4804,91.6005,4.3015e-05,4.2e-06,0.0,0 STARLINK-6054,1 56465U 23064T   24150.56909348  .00000420  00000-0  43015-4 0  9990,2 56465  69.9998 300.9606 0003050 268.4804  91.6005 14.98331173 59007,6950.189,96.107,574.174,569.934,0.0
56465.0,STARLINK-6054,PAYLOAD,2024-05-29 20:04:01,14.98331457,0.0003045,69.9999,300.2875,267.482,92.599,0.00010557,1.167e-05,0.0,0 STARLINK-6054,1 56465U 23064T   24150.83613232  .00001167  00000-0  10557-3 0  9997,2 56465  69.9999 300.2875 0003045 267.4820  92.5990 14.98331457 59042,6950.188,96.107,574.17,569.937,0.0
56465.0,STARLINK-6054,PAYLOAD,2024-05-30 13:41:29,14.9834115,0.0003006,70.0,298.437,263.7317,96.3499,8.1993e-05,8.86e-06,0.0,0 STARLINK-6054,1 56465U 23064T   24151.57048460  .00000886  00000-0  81993-4 0  9994,2 56465  70.0000 298.4370 0003006 263.7317  96.3499 14.98341150 59512,6950.158,96.106,574.113,569.934,0.0
56465.0,STARLINK-6054,PAYLOAD,2024-05-30 18:29:53,14.98342852,0.0002992,69.9999,297.9317,263.5974,96.4844,9.9507e-05,1.095e-05,0.0,0 STARLINK-6054,1 56465U 23064T   24151.77076186  .00001095  00000-0  99507-4 0  9995,2 56465  69.9999 297.9317 0002992 263.5974  96.4844 14.98342852 59189,6950.153,96.106,574.098,569.939,0.0
56465.0,STARLINK-6054,PAYLOAD,2024-05-31 12:07:23,14.98331362,0.0002884,70.0002,296.08,260.3204,99.7629,6.9844e-05,7.4e-06,0.0,0 STARLINK-6054,1 56465U 23064T   24152.50512736  .00000740  00000-0  69844-4 0  9990,2 56465  70.0002 296.0800 0002884 260.3204  99.7629 14.98331362 59658,6950.189,96.107,574.058,570.049,0.0
56465.0,STARLINK-6054,PAYLOAD,2024-05-31 13:43:31,14.98331396,0.0002886,70.0001,295.9117,260.2419,99.8414,6.776e-05,7.16e-06,0.0,0 STARLINK-6054,1 56465U 23064T   24152.57188728  .00000716  00000-0  67760-4 0  9995,2 56465  70.0001 295.9117 0002886 260.2419  99.8414 14.98331396 59307,6950.189,96.107,574.059,570.048,0.0
56465.0,STARLINK-6054,PAYLOAD,2024-05-31 18:31:55,14.98331483,0.0002956,70.0002,295.4059,266.4487,93.6333,7.5304e-05,8.06e-06,0.0,0 STARLINK-6054,1 56465U 23064T   24152.77216706  .00000806  00000-0  75304-4 0  9998,2 56465  70.0002 295.4059 0002956 266.4487  93.6333 14.98331483 59331,6950.188,96.107,574.108,569.999,0.0
56465.0,STARLINK-6054,PAYLOAD,2024-06-01 12:09:24,14.98330069,0.0003054,69.9996,293.555,266.1748,93.9062,-5.0223e-05,-6.92e-06,0.0,0 STARLINK-6054,1 56465U 23064T   24153.50652989 -.00000692  00000-0 -50223-4 0  9995,2 56465  69.9996 293.5550 0003054 266.1748  93.9062 14.98330069 59805,6950.193,96.107,574.18,569.935,0.0
56465.0,STARLINK-6054,PAYLOAD,2024-06-01 15:21:40,14.9832302,0.0003133,69.9997,293.2181,266.1548,93.9253,6.3457e-05,6.64e-06,0.0,0 STARLINK-6054,1 56465U 23064T   24153.64005154  .00000664  00000-0  63457-4 0  9996,2 56465  69.9997 293.2181 0003133 266.1548  93.9253 14.98323020 59462,6950.214,96.107,574.257,569.902,0.0
56465.0,STARLINK-6054,PAYLOAD,2024-06-02 12:11:25,14.98310442,0.0002722,69.9996,291.0298,269.5278,90.5569,0.00030152,3.505e-05,0.0,0 STARLINK-6054,1 56465U 23064T   24154.50793804  .00003505  00000-0  30152-3 0  9990,2 56465  69.9996 291.0298 0002722 269.5278  90.5569 14.98310442 59957,6950.253,96.108,574.01,570.227,0.0
56465.0,STARLINK-6054,PAYLOAD,2024-06-02 15:23:41,14.98328893,0.0003015,69.9996,290.6931,266.1046,93.9769,2.8265e-05,2.44e-06,0.0,0 STARLINK-6054,1 56465U 23064T   24154.64145037  .00000244  00000-0  28265-4 0  9994,2 56465  69.9996 290.6931 0003015 266.1046  93.9769 14.98328893 59619,6950.196,96.107,574.157,569.966,0.0
56465.0,STARLINK-6054,PAYLOAD,2024-06-03 12:13:25,14.98331098,0.0003164,69.9994,288.5043,268.5495,91.5302,0.00015799,1.793e-05,0.0,0 STARLINK-6054,1 56465U 23064T   24155.50932750  .00001793  00000-0  15799-3 0  9993,2 56465  69.9994 288.5043 0003164 268.5495  91.5302 14.98331098 59748,6950.189,96.107,574.254,569.855,0.0
56465.0,STARLINK-6054,PAYLOAD,2024-06-03 15:25:41,14.98336922,0.0003128,69.9992,288.1683,267.5467,92.5334,0.00011409,1.269e-05,0.0,0 STARLINK-6054,1 56465U 23064T   24155.64284498  .00001269  00000-0  11409-3 0  9999,2 56465  69.9992 288.1683 0003128 267.5467  92.5334 14.98336922 60121,6950.171,96.107,574.21,569.862,0.0
56465.0,STARLINK-6054,PAYLOAD,2024-06-04 10:39:19,14.98320579,0.0003218,69.9993,286.148,268.896,91.183,0.00029886,3.474e-05,0.0,0 STARLINK-6054,1 56465U 23064T   24156.44397203  .00003474  00000-0  29886-3 0  9995,2 56465  69.9993 286.1480 0003218 268.8960  91.1830 14.98320579 60247,6950.222,96.108,574.324,569.85,0.0
56465.0,STARLINK-6054,PAYLOAD,2024-06-04 15:27:42,14.98340112,0.0003034,69.9994,285.6424,266.3648,93.7164,4.441e-05,4.37e-06,0.0,0 STARLINK-6054,1 56465U 23064T   24156.64424396  .00000437  00000-0  44410-4 0  9998,2 56465  69.9994 285.6424 0003034 266.3648  93.7164 14.98340112 60278,6950.162,96.106,574.135,569.918,0.0
56465.0,STARLINK-6054,PAYLOAD,2024-06-05 12:17:27,14.98331734,0.0003244,69.9992,283.4545,269.0977,90.9811,-8.644e-06,-1.96e-06,0.0,0 STARLINK-6054,1 56465U 23064T   24157.51212962 -.00000196  00000-0 -86440-5 0  9993,2 56465  69.9992 283.4545 0003244 269.0977  90.9811 14.98331734 60407,6950.188,96.107,574.307,569.798,0.0
56465.0,STARLINK-6054,PAYLOAD,2024-06-05 15:29:43,14.98333692,0.0003361,69.9993,283.118,271.8429,88.2345,1.3703e-05,7e-07,0.0,0 STARLINK-6054,1 56465U 23064T   24157.64564771  .00000070  00000-0  13703-4 0  9995,2 56465  69.9993 283.1180 0003361 271.8429  88.2345 14.98333692 60062,6950.181,96.107,574.382,569.711,0.0
56465.0,STARLINK-6054,PAYLOAD,2024-06-06 01:06:31,14.9834129,0.0003306,69.9992,282.1078,269.8569,90.2211,-4.8196e-05,-6.68e-06,0.0,0 STARLINK-6054,1 56465U 23064T   24158.04620252 -.00000668  00000-0 -48196-4 0  9996,2 56465  69.9992 282.1078 0003306 269.8569  90.2211 14.98341290 60481,6950.158,96.106,574.321,569.725,0.0
56465.0,STARLINK-6054,PAYLOAD,2024-06-06 12:19:28,14.98333399,0.0003147,69.9995,280.9295,269.3664,90.7134,5.2392e-05,5.32e-06,0.0,0 STARLINK-6054,1 56465U 23064T   24158.51352560  .00000532  00000-0  52392-4 0  9993,2 56465  69.9995 280.9295 0003147 269.3664  90.7134 14.98333399 60553,6950.182,96.107,574.235,569.86,0.0
56465.0,STARLINK-6054,PAYLOAD,2024-06-06 18:44:00,14.98341455,0.0003008,69.9997,280.2574,265.3512,94.7304,0.00011902,1.328e-05,0.0,0 STARLINK-6054,1 56465U 23064T   24158.78055764  .00001328  00000-0  11902-3 0  9993,2 56465  69.9997 280.2574 0003008 265.3512  94.7304 14.98341455 60591,6950.157,96.106,574.113,569.932,0.0
56465.0,STARLINK-6054,PAYLOAD,2024-06-07 13:57:37,14.9832989,0.0003068,69.9993,278.2355,272.0433,88.0374,3.2052e-05,2.89e-06,0.0,0 STARLINK-6054,1 56465U 23064T   24159.58168722  .00000289  00000-0  32052-4 0  9996,2 56465  69.9993 278.2355 0003068 272.0433  88.0374 14.98329890 60710,6950.193,96.107,574.191,569.926,0.0
56465.0,STARLINK-6054,PAYLOAD,2024-06-08 13:59:38,14.98333136,0.000285,69.9983,275.7071,256.9932,103.0909,0.00012802,1.435e-05,0.0,0 STARLINK-6054,1 56465U 23064T   24160.58308047  .00001435  00000-0  12802-3 0  9998,2 56465  69.9983 275.7071 0002850 256.9932 103.0909 14.98333136 60506,6950.183,96.107,574.029,570.067,0.0
